STARLINK-5749           
1 55569U 23020A   23072.25001157 -.01162971  00000+0 -33150-1 0  9993
2 55569  42.9980 183.2119 0001215 259.7914 256.7867 15.38227749  4558
STARLINK-5737           
1 55570U 23020B   23071.91667824 -.01239866  00000+0 -34686-1 0  9999
2 55570  42.9984 185.1374 0001451 283.4582 181.2016 15.38986126  1304
STARLINK-5739           
1 55571U 23020C   23072.25001157 -.01166716  00000+0 -32921-1 0  9992
2 55571  42.9979 183.1976 0001221 270.7976 251.7102 15.38545246  4559
STARLINK-5732           
1 55572U 23020D   23072.25001157 -.01169918  00000+0 -32843-1 0  9993
2 55572  42.9984 183.1881 0001223 262.5658 264.8091 15.38708253  4550
STARLINK-5738           
1 55573U 23020E   23072.25001157 -.01167489  00000+0 -32893-1 0  9990
2 55573  42.9979 183.1928 0001205 268.1990 256.2694 15.38593171  4553
STARLINK-5747           
1 55574U 23020F   23072.25001157 -.01169336  00000+0 -31543-1 0  9995
2 55574  42.9980 183.1389 0001242 265.5003 281.9230 15.39910627  4555
STARLINK-5745           
1 55575U 23020G   23072.25001157 -.01168797  00000+0 -31917-1 0  9991
2 55575  42.9978 183.1549 0001272 261.9486 278.1509 15.39540408  4552
STARLINK-5751           
1 55576U 23020H   23071.36259822  .00003115  00000+0  27189-4 0  9995
2 55576  43.0035 186.3319 0002786 268.4848  91.5701 15.71361511  4445
STARLINK-5752           
1 55577U 23020J   23071.91667824 -.00774713  00000+0 -14865-1 0  9997
2 55577  42.9978 184.5234 0001539 273.0438  82.4373 15.49584837  1307
STARLINK-5713           
1 55578U 23020K   23072.25001157 -.01166658  00000+0 -31163-1 0  9991
2 55578  42.9980 183.1230 0001235 261.2202 292.3702 15.40199232  4553
STARLINK-5754           
1 55579U 23020L   23072.25001157 -.01164604  00000+0 -30733-1 0  9993
2 55579  42.9978 183.0989 0001227 260.5959 302.4187 15.40557810  4553
STARLINK-5757           
1 55580U 23020M   23071.36209663  .00011853  00000+0  93673-4 0  9997
2 55580  43.0015 186.3292 0002115 294.1563  65.9083 15.71364262  4448
STARLINK-5753           
1 55581U 23020N   23072.25001157 -.01166390  00000+0 -31199-1 0  9997
2 55581  42.9979 183.1266 0001224 264.7233 287.0774 15.40157100  4552
STARLINK-5741           
1 55582U 23020P   23071.36462264  .00011007  00000+0  87200-4 0  9997
2 55582  43.0009 186.3628 0001695 275.2923  84.7751 15.71374776  4440
STARLINK-5742           
1 55583U 23020Q   23072.25001157 -.01161440  00000+0 -30827-1 0  9997
2 55583  42.9976 183.1140 0001119 273.0828 283.9924 15.40377890  4550
STARLINK-5736           
1 55584U 23020R   23072.25001157 -.01162736  00000+0 -30780-1 0  9995
2 55584  42.9980 183.1096 0001227 260.8375 298.4803 15.40459423  4557
STARLINK-5769           
1 55585U 23020S   23071.68293880  .00003756  00000+0  32064-4 0  9991
2 55585  43.0012 184.4455 0001955 263.0891  96.9754 15.71364920  4495
STARLINK-5767           
1 55586U 23020T   23071.91667824 -.01247134  00000+0 -32063-1 0  9990
2 55586  42.9984 185.0185 0001329 282.2102 231.4340 15.41537144  1303
STARLINK-5727           
1 55587U 23020U   23072.25001157 -.00709080  00000+0 -13719-1 0  9999
2 55587  42.9979 182.5657 0002616 274.4098 147.5346 15.49141427  4568
STARLINK-5728           
1 55588U 23020V   23071.91667824 -.01248518  00000+0 -31683-1 0  9996
2 55588  42.9986 184.9999 0001278 271.0267 250.4034 15.41927622  1304
STARLINK-5697           
1 55589U 23020W   23071.91667824 -.01245521  00000+0 -31937-1 0  9990
2 55589  42.9981 185.0122 0001335 277.0588 238.6503 15.41611690  1300
STARLINK-5762           
1 55590U 23020X   23072.25001157 -.01172405  00000+0 -30251-1 0  9999
2 55590  42.9987 183.0633 0001254 260.1646 318.1791 15.41248024  4551
STARLINK-5760           
1 55591U 23020Y   23071.91667824 -.01247376  00000+0 -31721-1 0  9994
2 55591  42.9984 185.0028 0001320 280.0452 239.4635 15.41861862  1302
STARLINK-5759           
1 55592U 23020Z   23072.25001157 -.01175582  00000+0 -30312-1 0  9998
2 55592  42.9985 183.0573 0001274 254.2237 326.9582 15.41276211  4550
STARLINK-5703           
1 55593U 23020AA  23071.91667824 -.01248895  00000+0 -31661-1 0  9996
2 55593  42.9983 184.9947 0001273 272.3594 250.6449 15.41958116  1306
STARLINK-5750           
1 55594U 23020AB  23072.25001157 -.01171412  00000+0 -29952-1 0  9996
2 55594  42.9985 183.0480 0001158 258.5225 326.5098 15.41516711  4554
STARLINK-5740           
1 55595U 23020AC  23072.25001157 -.01169456  00000+0 -28816-1 0  9990
2 55595  42.9981 183.0273 0001222 256.1174 336.8672 15.42607420  4551
STARLINK-5729           
1 55596U 23020AD  23072.25001157 -.01171862  00000+0 -29917-1 0  9998
2 55596  42.9984 183.0438 0001265 261.2390 325.5417 15.41563220  4552
STARLINK-5743           
1 55597U 23020AE  23071.68283672  .00052936  00000+0  40404-3 0  9992
2 55597  43.0018 184.4453 0001642 271.0400  89.0280 15.71385744  4494
STARLINK-5756           
1 55598U 23020AF  23071.34085425  .00007977  00000+0  64211-4 0  9990
2 55598  42.9982 186.1598 0001511 284.4643  75.6057 15.71357885  4447
STARLINK-5761           
1 55599U 23020AG  23071.46393117  .00038871  00000+0  29819-3 0  9995
2 55599  43.0010 185.3566 0001599 266.9073  93.1612 15.71378916  4468
STARLINK-5755           
1 55600U 23020AH  23071.37309160  .00013904  00000+0  10924-3 0  9990
2 55600  43.0003 186.4167 0002702 276.0147  84.0413 15.71366551  4441
STARLINK-5744           
1 55601U 23020AJ  23072.25001157 -.01174331  00000+0 -28964-1 0  9990
2 55601  42.9984 183.0160 0001302 258.6272 339.2752 15.42590131  4558
STARLINK-5764           
1 55602U 23020AK  23071.71483400  .00015200  00000+0  11900-3 0  9996
2 55602  42.9975 183.7964 0000610 219.0079 141.0744 15.71384140  4503
STARLINK-5735           
1 55603U 23020AL  23071.69111447  .00001305  00000+0  13394-4 0  9994
2 55603  42.9995 184.5006 0001498 253.1593 106.9110 15.71355713  4496
STARLINK-5748           
1 55604U 23020AM  23071.36705490  .00005800  00000+0  47637-4 0  9997
2 55604  43.0018 186.3734 0004543 291.8748  68.1636 15.71359224  4446
STARLINK-5725           
1 55605U 23020AN  23071.37299053 -.00001263  00000+0 -61892-5 0  9993
2 55605  42.9979 186.4155 0001297 280.9624  79.1098 15.71361167  4447
STARLINK-5700           
1 55607U 23020AQ  23071.69047985  .00009180  00000+0  73283-4 0  9995
2 55607  42.9974 184.4992 0001169 306.9235  53.1526 15.71384444  4492
STARLINK-5726           
1 55608U 23020AR  23071.37247967  .00001031  00000+0  11318-4 0  9991
2 55608  42.9978 186.4121 0001762 271.1475  88.9191 15.71339963  4446
STARLINK-5719           
1 55609U 23020AS  23071.37288296  .00000530  00000+0  74888-5 0  9997
2 55609  42.9989 186.4130 0002189 255.5927 104.4698 15.71357510  4445
STARLINK-5722           
1 55610U 23020AT  23071.68985689 -.00002473  00000+0 -15425-4 0  9994
2 55610  42.9973 184.4912 0001657 256.3477 103.7207 15.71349201  4495
STARLINK-5730           
1 55611U 23020AU  23071.68995510  .00011211  00000+0  88774-4 0  9994
2 55611  42.9998 184.4911 0001948 250.4372 109.6285 15.71369202  4498
STARLINK-5734           
1 55612U 23020AV  23071.37193473  .00018723  00000+0  14579-3 0  9995
2 55612  42.9994 186.4065 0002325 265.8753  94.1849 15.71372295  4445
STARLINK-5715           
1 55613U 23020AW  23071.56304096  .00001643  00000+0  15967-4 0  9998
2 55613  42.9990 185.2590 0001775 285.4098  74.6573 15.71364298  4474
STARLINK-5714           
1 55614U 23020AX  23072.25001157  .00181163  00000+0  11022-2 0  9990
2 55614  42.9985 180.5371 0000128 102.4105  62.0257 15.76152321  4581
STARLINK-5712           
1 55615U 23020AY  23071.68963253  .00000392  00000+0  64441-5 0  9991
2 55615  42.9999 184.4885 0002601 278.6021  81.4552 15.71370928  4494
STARLINK-5710           
1 55616U 23020AZ  23071.68920628  .00008801  00000+0  70435-4 0  9993
2 55616  42.9991 184.4873 0005555 243.3072 116.7227 15.71364370  4495
STARLINK-5721           
1 55617U 23020BA  23072.25001157  .00036578  00000+0  28134-3 0  9995
2 55617  42.9981 181.1048 0001830 264.8671  30.2022 15.71339365  4576
STARLINK-5717           
1 55618U 23020BB  23071.30774245  .00012157  00000+0  95963-4 0  9998
2 55618  43.0009 186.7847 0003181 270.1800  89.8703 15.71366355  4433
STARLINK-5720           
1 55619U 23020BC  23071.37119984  .00011552  00000+0  91371-4 0  9996
2 55619  42.9991 186.4026 0002623 275.5263  84.5306 15.71366894  4440
STARLINK-5718           
1 55620U 23020BD  23071.30753457  .00020278  00000+0  15758-3 0  9999
2 55620  42.9979 186.7849 0001838 247.8609 112.2064 15.71373363  4435
STARLINK-5709           
1 55621U 23020BE  23071.68931434  .00002417  00000+0  21877-4 0  9999
2 55621  42.9999 184.4873 0003853 257.6333 102.4104 15.71366039  4496
STARLINK-5702           
1 55622U 23020BF  23071.68879908  .00009290  00000+0  74171-4 0  9998
2 55622  42.9968 184.4807 0001660 238.1689 121.9017 15.71366972  4497
STARLINK-5698           
1 55623U 23020BG  23071.68869523  .00002112  00000+0  19551-4 0  9998
2 55623  43.0005 184.4821 0002268 271.2111  88.8497 15.71357569  4496
FALCON 9 DEB            
1 55624U 23020BH  23071.68719771  .01847535  33238-2  12298-2 0  9996
2 55624  43.0047 179.0679 0004484 122.1577 237.9743 16.16876722  4551
FALCON 9 DEB            
1 55625U 23020BJ  23071.66759577  .02288694  88941-5  11368-2 0  9990
2 55625  42.9947 178.8915 0003491 115.8269 244.2977 16.19922968  4550
FALCON 9 DEB            
1 55626U 23020BK  23071.64084998  .02755217  89682-5  10548-2 0  9999
2 55626  42.9964 178.6611 0004101  94.4607 265.6749 16.23157870  4559
FALCON 9 DEB            
1 55627U 23020BL  23071.46551593  .01926880  41654-2  10794-2 0  9992
2 55627  42.9891 179.9346 0004838  93.8649 266.2790 16.19398860  4525
STARLINK-5484           
1 55628U 23021A   23072.25001157 -.01212537  00000+0 -12544-1 0  9998
2 55628  70.0010  83.9441 0003698 270.8828 146.7009 15.67137295  4238
STARLINK-5497           
